STARLINK-36730          
1 67874U 26034AA  26079.58736803  .00221956  00000+0  10946-2 0  9997
2 67874  53.1582 156.5286 0001598  48.4172 311.6988 15.80968065  5661
STARLINK-36727          
1 67875U 26034AB  26079.58662589  .00317114  00000+0  15484-2 0  9991
2 67875  53.1579 156.5237 0001469  56.0262 304.0900 15.80921824  5668
STARLINK-36743          
1 67876U 26034AC  26079.58587435  .00193507  00000+0  95994-3 0  9991
2 67876  53.1586 156.5180 0001383  95.9031 264.2149 15.80922288  5662
STARLINK-36784          
1 67877U 26034AD  26079.83335647 -.01958948  00000+0 -18183-1 0  9990
2 67877  53.1587 155.3782 0000894  66.9926 214.2853 15.69845505  5655
STARLINK-36689          
1 67878U 26034AE  26079.58437494  .00272245  00000+0  13350-2 0  9994
2 67878  53.1586 156.5088 0001553  68.8688 291.2500 15.80951536  5666
STARLINK-36818          
1 67879U 26035A   26079.75229243  .00263145  00000+0  17028-2 0  9991
2 67879  97.2876  12.6766 0001694 123.5463 236.5964 15.75304681  5583
STARLINK-36821          
1 67880U 26035B   26079.74947325  .00309317  00000+0  19906-2 0  9999
2 67880  97.2861  12.6799 0003931  85.6981 274.4733 15.75300082  5580
STARLINK-36808          
1 67881U 26035C   26079.53854299  .00227323  00000+0  11524-2 0  9998
2 67881  97.2898  12.5054 0001482  81.2731 278.8705 15.80901363  5557
STARLINK-36817          
1 67882U 26035D   26079.83335647 -.00018674  00000+0 -12455-3 0  9997
2 67882  97.2861  12.8145 0001625  88.7663 134.7066 15.75199834  5553
STARLINK-36856          
1 67883U 26035E   26079.83335647 -.00111256  00000+0 -75346-3 0  9996
2 67883  97.2862  12.8093 0001335  86.2408 121.2554 15.75230120  5552
STARLINK-36842          
1 67884U 26035F   26079.74664826  .00354267  00000+0  22601-2 0  9995
2 67884  97.2866  12.6823 0004140  86.0349 274.1390 15.75378467  5581
STARLINK-36826          
1 67885U 26035G   26079.83335647 -.00058880  00000+0 -39637-3 0  9994
2 67885  97.2868  12.7963 0001391  92.0763  89.4297 15.75203755  5559
