CCSDS_OMM_VERS = 2.0
CREATION_DATE  = 
ORIGINATOR     = 

OBJECT_NAME    = STARLINK-36730
OBJECT_ID      = 2026-034AA
CENTER_NAME    = EARTH
REF_FRAME      = TEME
TIME_SYSTEM    = UTC
MEAN_ELEMENT_THEORY = SGP/SGP4

EPOCH          = 2026-03-20T14:05:48.597792
MEAN_MOTION    = 15.80968065
ECCENTRICITY   = .0001598
INCLINATION    = 53.1582
RA_OF_ASC_NODE = 156.5286
ARG_OF_PERICENTER = 48.4172
MEAN_ANOMALY   = 311.6988

EPHEMERIS_TYPE = 0
CLASSIFICATION_TYPE = U
NORAD_CAT_ID   = 67874
ELEMENT_SET_NO = 999
REV_AT_EPOCH   = 566
BSTAR          = .10946E-2
MEAN_MOTION_DOT = .221956E-2
MEAN_MOTION_DDOT = 0

CCSDS_OMM_VERS = 2.0
CREATION_DATE  = 
ORIGINATOR     = 

OBJECT_NAME    = STARLINK-36727
OBJECT_ID      = 2026-034AB
CENTER_NAME    = EARTH
REF_FRAME      = TEME
TIME_SYSTEM    = UTC
MEAN_ELEMENT_THEORY = SGP/SGP4

EPOCH          = 2026-03-20T14:04:44.476896
MEAN_MOTION    = 15.80921824
ECCENTRICITY   = .0001469
INCLINATION    = 53.1579
RA_OF_ASC_NODE = 156.5237
ARG_OF_PERICENTER = 56.0262
MEAN_ANOMALY   = 304.0900

EPHEMERIS_TYPE = 0
CLASSIFICATION_TYPE = U
NORAD_CAT_ID   = 67875
ELEMENT_SET_NO = 999
REV_AT_EPOCH   = 566
BSTAR          = .15484E-2
MEAN_MOTION_DOT = .317114E-2
MEAN_MOTION_DDOT = 0

CCSDS_OMM_VERS = 2.0
CREATION_DATE  = 
ORIGINATOR     = 

OBJECT_NAME    = STARLINK-36743
OBJECT_ID      = 2026-034AC
CENTER_NAME    = EARTH
REF_FRAME      = TEME
TIME_SYSTEM    = UTC
MEAN_ELEMENT_THEORY = SGP/SGP4

EPOCH          = 2026-03-20T14:03:39.543840
MEAN_MOTION    = 15.80922288
ECCENTRICITY   = .0001383
INCLINATION    = 53.1586
RA_OF_ASC_NODE = 156.5180
ARG_OF_PERICENTER = 95.9031
MEAN_ANOMALY   = 264.2149

EPHEMERIS_TYPE = 0
CLASSIFICATION_TYPE = U
NORAD_CAT_ID   = 67876
ELEMENT_SET_NO = 999
REV_AT_EPOCH   = 566
BSTAR          = .95994E-3
MEAN_MOTION_DOT = .193507E-2
MEAN_MOTION_DDOT = 0

CCSDS_OMM_VERS = 2.0
CREATION_DATE  = 
ORIGINATOR     = 

OBJECT_NAME    = STARLINK-36784
OBJECT_ID      = 2026-034AD
CENTER_NAME    = EARTH
REF_FRAME      = TEME
TIME_SYSTEM    = UTC
MEAN_ELEMENT_THEORY = SGP/SGP4

EPOCH          = 2026-03-20T20:00:01.999008
MEAN_MOTION    = 15.69845505
ECCENTRICITY   = .0000894
INCLINATION    = 53.1587
RA_OF_ASC_NODE = 155.3782
ARG_OF_PERICENTER = 66.9926
MEAN_ANOMALY   = 214.2853

EPHEMERIS_TYPE = 0
CLASSIFICATION_TYPE = U
NORAD_CAT_ID   = 67877
ELEMENT_SET_NO = 999
REV_AT_EPOCH   = 565
BSTAR          = -.18183E-1
MEAN_MOTION_DOT = -.1958948E-1
MEAN_MOTION_DDOT = 0

CCSDS_OMM_VERS = 2.0
CREATION_DATE  = 
ORIGINATOR     = 

OBJECT_NAME    = STARLINK-36689
OBJECT_ID      = 2026-034AE
CENTER_NAME    = EARTH
REF_FRAME      = TEME
TIME_SYSTEM    = UTC
MEAN_ELEMENT_THEORY = SGP/SGP4

EPOCH          = 2026-03-20T14:01:29.994816
MEAN_MOTION    = 15.80951536
ECCENTRICITY   = .0001553
INCLINATION    = 53.1586
RA_OF_ASC_NODE = 156.5088
ARG_OF_PERICENTER = 68.8688
MEAN_ANOMALY   = 291.2500

EPHEMERIS_TYPE = 0
CLASSIFICATION_TYPE = U
NORAD_CAT_ID   = 67878
ELEMENT_SET_NO = 999
REV_AT_EPOCH   = 566
BSTAR          = .1335E-2
MEAN_MOTION_DOT = .272245E-2
MEAN_MOTION_DDOT = 0

CCSDS_OMM_VERS = 2.0
CREATION_DATE  = 
ORIGINATOR     = 

OBJECT_NAME    = STARLINK-36818
OBJECT_ID      = 2026-035A
CENTER_NAME    = EARTH
REF_FRAME      = TEME
TIME_SYSTEM    = UTC
MEAN_ELEMENT_THEORY = SGP/SGP4

EPOCH          = 2026-03-20T18:03:18.065952
MEAN_MOTION    = 15.75304681
ECCENTRICITY   = .0001694
INCLINATION    = 97.2876
RA_OF_ASC_NODE = 12.6766
ARG_OF_PERICENTER = 123.5463
MEAN_ANOMALY   = 236.5964

EPHEMERIS_TYPE = 0
CLASSIFICATION_TYPE = U
NORAD_CAT_ID   = 67879
ELEMENT_SET_NO = 999
REV_AT_EPOCH   = 558
BSTAR          = .17028E-2
MEAN_MOTION_DOT = .263145E-2
MEAN_MOTION_DDOT = 0

CCSDS_OMM_VERS = 2.0
CREATION_DATE  = 
ORIGINATOR     = 

OBJECT_NAME    = STARLINK-36821
OBJECT_ID      = 2026-035B
CENTER_NAME    = EARTH
REF_FRAME      = TEME
TIME_SYSTEM    = UTC
MEAN_ELEMENT_THEORY = SGP/SGP4

EPOCH          = 2026-03-20T17:59:14.488800
MEAN_MOTION    = 15.75300082
ECCENTRICITY   = .0003931
INCLINATION    = 97.2861
RA_OF_ASC_NODE = 12.6799
ARG_OF_PERICENTER = 85.6981
MEAN_ANOMALY   = 274.4733

EPHEMERIS_TYPE = 0
CLASSIFICATION_TYPE = U
NORAD_CAT_ID   = 67880
ELEMENT_SET_NO = 999
REV_AT_EPOCH   = 558
BSTAR          = .19906E-2
MEAN_MOTION_DOT = .309317E-2
MEAN_MOTION_DDOT = 0

CCSDS_OMM_VERS = 2.0
CREATION_DATE  = 
ORIGINATOR     = 

OBJECT_NAME    = STARLINK-36808
OBJECT_ID      = 2026-035C
CENTER_NAME    = EARTH
REF_FRAME      = TEME
TIME_SYSTEM    = UTC
MEAN_ELEMENT_THEORY = SGP/SGP4

EPOCH          = 2026-03-20T12:55:30.114336
MEAN_MOTION    = 15.80901363
ECCENTRICITY   = .00014826
INCLINATION    = 97.2898
RA_OF_ASC_NODE = 12.5054
ARG_OF_PERICENTER = 81.2731
MEAN_ANOMALY   = 278.8705

EPHEMERIS_TYPE = 0
CLASSIFICATION_TYPE = U
NORAD_CAT_ID   = 67881
ELEMENT_SET_NO = 999
REV_AT_EPOCH   = 555
BSTAR          = .11523645E-2
MEAN_MOTION_DOT = .227323E-2
MEAN_MOTION_DDOT = 0

CCSDS_OMM_VERS = 2.0
CREATION_DATE  = 
ORIGINATOR     = 

OBJECT_NAME    = STARLINK-36817
OBJECT_ID      = 2026-035D
CENTER_NAME    = EARTH
REF_FRAME      = TEME
TIME_SYSTEM    = UTC
MEAN_ELEMENT_THEORY = SGP/SGP4

EPOCH          = 2026-03-20T20:00:01.999008
MEAN_MOTION    = 15.75199834
ECCENTRICITY   = .0001625
INCLINATION    = 97.2861
RA_OF_ASC_NODE = 12.8145
ARG_OF_PERICENTER = 88.7663
MEAN_ANOMALY   = 134.7066

EPHEMERIS_TYPE = 0
CLASSIFICATION_TYPE = U
NORAD_CAT_ID   = 67882
ELEMENT_SET_NO = 999
REV_AT_EPOCH   = 555
BSTAR          = -.12455E-3
MEAN_MOTION_DOT = -.18674E-3
MEAN_MOTION_DDOT = 0

CCSDS_OMM_VERS = 2.0
CREATION_DATE  = 
ORIGINATOR     = 

OBJECT_NAME    = STARLINK-36856
OBJECT_ID      = 2026-035E
CENTER_NAME    = EARTH
REF_FRAME      = TEME
TIME_SYSTEM    = UTC
MEAN_ELEMENT_THEORY = SGP/SGP4

EPOCH          = 2026-03-20T20:00:01.999008
MEAN_MOTION    = 15.75230120
ECCENTRICITY   = .0001335
INCLINATION    = 97.2862
RA_OF_ASC_NODE = 12.8093
ARG_OF_PERICENTER = 86.2408
MEAN_ANOMALY   = 121.2554

EPHEMERIS_TYPE = 0
CLASSIFICATION_TYPE = U
NORAD_CAT_ID   = 67883
ELEMENT_SET_NO = 999
REV_AT_EPOCH   = 555
BSTAR          = -.75346E-3
MEAN_MOTION_DOT = -.111256E-2
MEAN_MOTION_DDOT = 0

CCSDS_OMM_VERS = 2.0
CREATION_DATE  = 
ORIGINATOR     = 

OBJECT_NAME    = STARLINK-36842
OBJECT_ID      = 2026-035F
CENTER_NAME    = EARTH
REF_FRAME      = TEME
TIME_SYSTEM    = UTC
MEAN_ELEMENT_THEORY = SGP/SGP4

EPOCH          = 2026-03-20T17:55:10.409664
MEAN_MOTION    = 15.75378467
ECCENTRICITY   = .000414
INCLINATION    = 97.2866
RA_OF_ASC_NODE = 12.6823
ARG_OF_PERICENTER = 86.0349
MEAN_ANOMALY   = 274.1390

EPHEMERIS_TYPE = 0
CLASSIFICATION_TYPE = U
NORAD_CAT_ID   = 67884
ELEMENT_SET_NO = 999
REV_AT_EPOCH   = 558
BSTAR          = .22601E-2
MEAN_MOTION_DOT = .354267E-2
MEAN_MOTION_DDOT = 0

CCSDS_OMM_VERS = 2.0
CREATION_DATE  = 
ORIGINATOR     = 

OBJECT_NAME    = STARLINK-36826
OBJECT_ID      = 2026-035G
CENTER_NAME    = EARTH
REF_FRAME      = TEME
TIME_SYSTEM    = UTC
MEAN_ELEMENT_THEORY = SGP/SGP4

EPOCH          = 2026-03-20T20:00:01.999008
MEAN_MOTION    = 15.75203755
ECCENTRICITY   = .0001391
INCLINATION    = 97.2868
RA_OF_ASC_NODE = 12.7963
ARG_OF_PERICENTER = 92.0763
MEAN_ANOMALY   = 89.4297

EPHEMERIS_TYPE = 0
CLASSIFICATION_TYPE = U
NORAD_CAT_ID   = 67885
ELEMENT_SET_NO = 999
REV_AT_EPOCH   = 555
BSTAR          = -.39637E-3
MEAN_MOTION_DOT = -.5888E-3
MEAN_MOTION_DDOT = 0

